{"type": "FeatureCollection", "features": [ {"type": "Feature", "properties": {"norad_id": 33650, "name": "FENGYUN 1C DEB", "group": "fengyun-1c-debris", "lat": -36.46423828982042, "lon": -42.90684020037427, "alt_km": 983.2326070399213, "timestamp": "2025-12-04T10:51:50.392236+00:00", "meta": {"OBJECT_NAME": "FENGYUN 1C DEB", "OBJECT_ID": "1999-025DEK", "EPOCH": "2025-11-29T05:22:43.300128", "MEAN_MOTION": 13.89153147, "ECCENTRICITY": 0.01505018, "INCLINATION": 98.9878, "RA_OF_ASC_NODE": 138.7642, "ARG_OF_PERICENTER": 115.9177, "MEAN_ANOMALY": 245.7581, "EPHEMERIS_TYPE": 0, "CLASSIFICATION_TYPE": "U", "NORAD_CAT_ID": 33650, "ELEMENT_SET_NO": 999, "REV_AT_EPOCH": 68621, "BSTAR": 0.00077422425, "MEAN_MOTION_DOT": 9.89e-06, "MEAN_MOTION_DDOT": 0}, "tle": {"line1": "1 33650U 99025DEK 25333.22411227  .00000989  00000+0  77422-3 0  9999", "line2": "2 33650  98.9878 138.7642 0150501 115.9177 245.7581 13.89153147686219"}}, "geometry": {"type": "Point", "coordinates": [-42.90684020037427, -36.46423828982042]}}, {"type": "Feature", "properties": {"norad_id": 33651, "name": "FENGYUN 1C DEB", "group": "fengyun-1c-debris", "lat": -79.613201017854, "lon": 80.44195129127147, "alt_km": 912.2941070745401, "timestamp": "2025-12-04T10:51:50.392246+00:00", "meta": {"OBJECT_NAME": "FENGYUN 1C DEB", "OBJECT_ID": "1999-025DEL", "EPOCH": "2025-12-01T08:52:27.581952", "MEAN_MOTION": 14.20342984, "ECCENTRICITY": 0.01180914, "INCLINATION": 98.6582, "RA_OF_ASC_NODE": 21.1922, "ARG_OF_PERICENTER": 86.6093, "MEAN_ANOMALY": 274.8584, "EPHEMERIS_TYPE": 0, "CLASSIFICATION_TYPE": "U", "NORAD_CAT_ID": 33651, "ELEMENT_SET_NO": 999, "REV_AT_EPOCH": 64110, "BSTAR": 0.00018405699, "MEAN_MOTION_DOT": 3.8e-06, "MEAN_MOTION_DDOT": 0}, "tle": {"line1": "1 33651U 99025DEL 25335.36976368  .00000380  00000+0  18406-3 0  9991", "line2": "2 33651  98.6582  21.1922 0118091  86.6093 274.8584 14.20342984641104"}}, "geometry": {"type": "Point", "coordinates": [80.44195129127147, -79.613201017854]}}, {"type": "Feature", "properties": {"norad_id": 33655, "name": "FENGYUN 1C DEB", "group": "fengyun-1c-debris", "lat": -13.757008344261234, "lon": -139.50942161622092, "alt_km": 613.01043602566, "timestamp": "2025-12-04T10:51:50.392268+00:00", "meta": {"OBJECT_NAME": "FENGYUN 1C DEB", "OBJECT_ID": "1999-025DEQ", "EPOCH": "2025-12-02T03:27:53.958528", "MEAN_MOTION": 14.97046756, "ECCENTRICITY": 0.00483741, "INCLINATION": 98.8068, "RA_OF_ASC_NODE": 40.0679, "ARG_OF_PERICENTER": 34.219, "MEAN_ANOMALY": 326.2129, "EPHEMERIS_TYPE": 0, "CLASSIFICATION_TYPE": "U", "NORAD_CAT_ID": 33655, "ELEMENT_SET_NO": 999, "REV_AT_EPOCH": 96399, "BSTAR": 0.00225965, "MEAN_MOTION_DOT": 0.00026675, "MEAN_MOTION_DDOT": 0}, "tle": {"line1": "1 33655U 99025DEQ 25336.14437452  .00026675  00000+0  22597-2 0  9998", "line2": "2 33655  98.8068  40.0679 0048374  34.2190 326.2129 14.97046756963994"}}, "geometry": {"type": "Point", "coordinates": [-139.50942161622092, -13.757008344261234]}}, {"type": "Feature", "properties": {"norad_id": 33656, "name": "FENGYUN 1C DEB", "group": "fengyun-1c-debris", "lat": 18.049574479997904, "lon": -31.086648097105982, "alt_km": 763.9095230666262, "timestamp": "2025-12-04T10:51:50.392281+00:00", "meta": {"OBJECT_NAME": "FENGYUN 1C DEB", "OBJECT_ID": "1999-025DER", "EPOCH": "2025-12-01T05:08:12.514272", "MEAN_MOTION": 14.22694091, "ECCENTRICITY": 0.0090964, "INCLINATION": 98.5782, "RA_OF_ASC_NODE": 328.5792, "ARG_OF_PERICENTER": 64.5541, "MEAN_ANOMALY": 296.5016, "EPHEMERIS_TYPE": 0, "CLASSIFICATION_TYPE": "U", "NORAD_CAT_ID": 33656, "ELEMENT_SET_NO": 999, "REV_AT_EPOCH": 62545, "BSTAR": 0.00046353, "MEAN_MOTION_DOT": 1.041e-05, "MEAN_MOTION_DDOT": 0}, "tle": {"line1": "1 33656U 99025DER 25335.21403373  .00001041  00000+0  46353-3 0  9998", "line2": "2 33656  98.5782 328.5792 0090964  64.5541 296.5016 14.22694091625452"}}, "geometry": {"type": "Point", "coordinates": [-31.086648097105982, 18.049574479997904]}}, {"type": "Feature", "properties": {"norad_id": 33658, "name": "FENGYUN 1C DEB", "group": "fengyun-1c-debris", "lat": 79.19537645874564, "lon": 69.746695440215, "alt_km": 1111.5479095382934, "timestamp": "2025-12-04T10:51:50.392292+00:00", "meta": {"OBJECT_NAME": "FENGYUN 1C DEB", "OBJECT_ID": "1999-025DET", "EPOCH": "2025-12-02T16:07:19.695936", "MEAN_MOTION": 13.62248134, "ECCENTRICITY": 0.02842159, "INCLINATION": 99.5636, "RA_OF_ASC_NODE": 130.05, "ARG_OF_PERICENTER": 206.7255, "MEAN_ANOMALY": 151.8999, "EPHEMERIS_TYPE": 0, "CLASSIFICATION_TYPE": "U", "NORAD_CAT_ID": 33658, "ELEMENT_SET_NO": 999, "REV_AT_EPOCH": 58002, "BSTAR": 0.0047533349, "MEAN_MOTION_DOT": 4.778e-05, "MEAN_MOTION_DDOT": 0}, "tle": {"line1": "1 33658U 99025DET 25336.67175574  .00004778  00000+0  47533-2 0  9990", "line2": "2 33658  99.5636 130.0500 0284215 206.7255 151.8999 13.62248134580024"}}, "geometry": {"type": "Point", "coordinates": [69.746695440215, 79.19537645874564]}}, {"type": "Feature", "properties": {"norad_id": 33660, "name": "FENGYUN 1C DEB", "group": "fengyun-1c-debris", "lat": -61.419947031519136, "lon": 53.95128521110395, "alt_km": 857.5870993483495, "timestamp": "2025-12-04T10:51:50.392302+00:00", "meta": {"OBJECT_NAME": "FENGYUN 1C DEB", "OBJECT_ID": "1999-025DEV", "EPOCH": "2025-12-03T13:35:38.279328", "MEAN_MOTION": 13.91749917, "ECCENTRICITY": 0.01100601, "INCLINATION": 98.656, "RA_OF_ASC_NODE": 249.3618, "ARG_OF_PERICENTER": 271.6308, "MEAN_ANOMALY": 213.5816, "EPHEMERIS_TYPE": 0, "CLASSIFICATION_TYPE": "U", "NORAD_CAT_ID": 33660, "ELEMENT_SET_NO": 999, "REV_AT_EPOCH": 90936, "BSTAR": 0.00083288492, "MEAN_MOTION_DOT": 1.071e-05, "MEAN_MOTION_DDOT": 0}, "tle": {"line1": "1 33660U 99025DEV 25337.56641527  .00001071  00000+0  83288-3 0  9999", "line2": "2 33660  98.6560 249.3618 0110060 271.6308 213.5816 13.91749917909366"}}, "geometry": {"type": "Point", "coordinates": [53.95128521110395, -61.419947031519136]}}, {"type": "Feature", "properties": {"norad_id": 33663, "name": "FENGYUN 1C DEB", "group": "fengyun-1c-debris", "lat": 41.30503614500634, "lon": -38.86391188315832, "alt_km": 627.2439027752916, "timestamp": "2025-12-04T10:51:50.392312+00:00", "meta": {"OBJECT_NAME": "FENGYUN 1C DEB", "OBJECT_ID": "1999-025DEY", "EPOCH": "2025-12-03T05:05:31.392960", "MEAN_MOTION": 14.61049241, "ECCENTRICITY": 0.0083574, "INCLINATION": 98.8831, "RA_OF_ASC_NODE": 327.7042, "ARG_OF_PERICENTER": 41.7093, "MEAN_ANOMALY": 319.0438, "EPHEMERIS_TYPE": 0, "CLASSIFICATION_TYPE": "U", "NORAD_CAT_ID": 33663, "ELEMENT_SET_NO": 999, "REV_AT_EPOCH": 64063, "BSTAR": 0.0084154, "MEAN_MOTION_DOT": 0.00043621, "MEAN_MOTION_DDOT": 0}, "tle": {"line1": "1 33663U 99025DEY 25337.21216890  .00043621  00000+0  84154-2 0  9994", "line2": "2 33663  98.8831 327.7042 0083574  41.7093 319.0438 14.61049241640635"}}, "geometry": {"type": "Point", "coordinates": [-38.86391188315832, 41.30503614500634]}}, {"type": "Feature", "properties": {"norad_id": 33664, "name": "FENGYUN 1C DEB", "group": "fengyun-1c-debris", "lat": -24.23965170697671, "lon": -56.410704282847085, "alt_km": 977.47485678463, "timestamp": "2025-12-04T10:51:50.392323+00:00", "meta": {"OBJECT_NAME": "FENGYUN 1C DEB", "OBJECT_ID": "1999-025DEZ", "EPOCH": "2025-12-02T03:10:30.773568", "MEAN_MOTION": 14.03976749, "ECCENTRICITY": 0.01640632, "INCLINATION": 98.7018, "RA_OF_ASC_NODE": 125.3204, "ARG_OF_PERICENTER": 69.7897, "MEAN_ANOMALY": 292.0828, "EPHEMERIS_TYPE": 0, "CLASSIFICATION_TYPE": "U", "NORAD_CAT_ID": 33664, "ELEMENT_SET_NO": 999, "REV_AT_EPOCH": 90590, "BSTAR": 0.00053085125, "MEAN_MOTION_DOT": 9.05e-06, "MEAN_MOTION_DDOT": 0}, "tle": {"line1": "1 33664U 99025DEZ 25336.13230062  .00000905  00000+0  53085-3 0  9990", "line2": "2 33664  98.7018 125.3204 0164063  69.7897 292.0828 14.03976749905904"}}, "geometry": {"type": "Point", "coordinates": [-56.410704282847085, -24.23965170697671]}}, {"type": "Feature", "properties": {"norad_id": 33665, "name": "FENGYUN 1C DEB", "group": "fengyun-1c-debris", "lat": -35.197733499330795, "lon": 102.43472381374696, "alt_km": 1173.3900578921948, "timestamp": "2025-12-04T10:51:50.392333+00:00", "meta": {"OBJECT_NAME": "FENGYUN 1C DEB", "OBJECT_ID": "1999-025DFA", "EPOCH": "2025-11-30T14:39:07.562016", "MEAN_MOTION": 14.03506601, "ECCENTRICITY": 0.0456092, "INCLINATION": 99.0223, "RA_OF_ASC_NODE": 92.1738, "ARG_OF_PERICENTER": 126.0265, "MEAN_ANOMALY": 238.4072, "EPHEMERIS_TYPE": 0, "CLASSIFICATION_TYPE": "U", "NORAD_CAT_ID": 33665, "ELEMENT_SET_NO": 999, "REV_AT_EPOCH": 92421, "BSTAR": 0.0013543, "MEAN_MOTION_DOT": 5.359e-05, "MEAN_MOTION_DDOT": 0}, "tle": {"line1": "1 33665U 99025DFA 25334.61050419  .00005359  00000+0  13543-2 0  9990", "line2": "2 33665  99.0223  92.1738 0456092 126.0265 238.4072 14.03506601924218"}}, "geometry": {"type": "Point", "coordinates": [102.43472381374696, -35.197733499330795]}}, {"type": "Feature", "properties": {"norad_id": 33673, "name": "FENGYUN 1C DEB", "group": "fengyun-1c-debris", "lat": 19.421833571267836, "lon": -151.52409222469714, "alt_km": 904.0553863366076, "timestamp": "2025-12-04T10:51:50.392343+00:00", "meta": {"OBJECT_NAME": "FENGYUN 1C DEB", "OBJECT_ID": "1999-025DFJ", "EPOCH": "2025-12-03T10:04:40.346688", "MEAN_MOTION": 13.95517458, "ECCENTRICITY": 0.01076591, "INCLINATION": 99.3442, "RA_OF_ASC_NODE": 24.1012, "ARG_OF_PERICENTER": 249.7196, "MEAN_ANOMALY": 126.0879, "EPHEMERIS_TYPE": 0, "CLASSIFICATION_TYPE": "U", "NORAD_CAT_ID": 33673, "ELEMENT_SET_NO": 999, "REV_AT_EPOCH": 89772, "BSTAR": 0.00099874286, "MEAN_MOTION_DOT": 1.377e-05, "MEAN_MOTION_DDOT": 0}, "tle": {"line1": "1 33673U 99025DFJ 25337.41991142  .00001377  00000+0  99874-3 0  9995", "line2": "2 33673  99.3442  24.1012 0107659 249.7196 126.0879 13.95517458897725"}}, "geometry": {"type": "Point", "coordinates": [-151.52409222469714, 19.421833571267836]}}]}